#aV2022  3  7  0  0  0.00000000     288 DD+AD WGS84 FIT  NGA
## 2200  86400.00000000   300.00000000 59645 0.0000000000000
+   32     1  2  3  4  5  6  7  8  9 10 11 12 13 14 15 16 17
+         18 19 20 21 22 23 24 25 26 27 28 29 30 31 32  0  0
+          0  0  0  0  0  0  0  0  0  0  0  0  0  0  0  0  0
+          0  0  0  0  0  0  0  0  0  0  0  0  0  0  0  0  0
+          0  0  0  0  0  0  0  0  0  0  0  0  0  0  0  0  0
++         2  2  2  2  2  2  2  2  2  2  2  2  2  2  2  2  2
++         2  2  2  2  2  2  2  2  2  2  2  2  2  2  2  0  0
++         0  0  0  0  0  0  0  0  0  0  0  0  0  0  0  0  0
++         0  0  0  0  0  0  0  0  0  0  0  0  0  0  0  0  0
++         0  0  0  0  0  0  0  0  0  0  0  0  0  0  0  0  0
%c cc cc ccc ccc cccc cccc cccc cccc ccccc ccccc ccccc ccccc
%c cc cc ccc ccc cccc cccc cccc cccc ccccc ccccc ccccc ccccc
%f  0.0000000  0.000000000  0.00000000000  0.000000000000000
%f  0.0000000  0.000000000  0.00000000000  0.000000000000000
%i    0    0    0    0      0      0      0      0         0
%i    0    0    0    0      0      0      0      0         0
/*      NGA, ST. LOUIS,MO.                                  
/*   EPHEMERIS COMPUTED FROM 2 DAYS OF DATA                 
/*   EPOCHA v7 SMOOTHER                                     
/*   G2139 IERS2010 SATIGS SATAPC                           
*  2022  3  7  5  0  0.00000000
P  1  -4938.559633  17212.566832 -19774.798863    414.986968                    
V  1 -22308.686669  10292.022329  15081.233712     -0.092339                    
P  2  21072.281774 -16061.654640   3349.382205   -651.924181                    
V  2   4224.677562    266.400948 -31401.598138     -0.005108                    
P  3   5671.341912  18408.370024 -18437.812210   -152.100868                    
V  3 -20248.752613 -11250.928022 -17450.888907     -0.171585                    
P  4   -541.705217  26438.341844   1942.028548   -185.334110                    
V  4  -3028.774682   2252.849892 -31699.222336      0.025378                    
P  5  10809.020416 -11109.525773  21421.739514    -73.788178                    
V  5  23740.633316  14021.886163  -4523.932420     -0.013476                    
P  6  23611.179627  -3699.765571 -11602.574511    223.077196                    
V  6 -12315.123460   8327.562173 -27477.447134      0.125169                    
P  7  12239.255724  10833.684210  21394.494670    314.632014                    
V  7 -23078.166913  12475.090280   6520.400306      0.021548                    
P  8  -6408.592465  24075.684763   8651.533398    -58.855916                    
V  8  -2571.049631 -11170.696397  29427.331240     -0.015287                    
P  9   8059.130046  22247.688507  11962.383685   -351.051375                    
V  9  -2846.071109  15270.932903 -26364.337964      0.019160                    
P 10 -23792.909582 -11218.252970  -4531.731037   -339.518884                    
V 10  -3834.782257  -4962.871023  31132.236947     -0.111740                    
P 11  23186.300101 -12673.212405   2632.784128    -68.961498                    
V 11   4197.316308   1117.582497 -31560.032903      0.103335                    
P 12  -1198.309204 -17837.639454 -19950.850948   -181.103692                    
V 12  20477.620285  13819.888175 -13643.589892     -0.057384                    
P 13  12903.753287 -18343.537112  13947.984965    272.712402                    
V 13   -986.523542  18115.787991  24628.893390      0.063064                    
P 14  23181.279002  12404.090360  -4046.648228    -91.313115                    
V 14   2561.928679   5329.115305  30981.995891     -0.039319                    
P 15   3384.499106 -24969.197383   7464.140571    -78.709462                    
V 15   4755.794313   9764.453699  29256.421723      0.029078                    
P 16 -15273.929447   6174.303981  20662.162425   -477.708797                    
V 16 -20875.402422 -16695.204919  -9856.694828     -0.045205                    
P 17  13230.243330   8658.139021 -20901.993749    583.956440                    
V 17  -3431.604572  27298.312992   8999.693114      0.049762                    
P 18 -11623.064302 -10559.509774  21431.234986    225.526993                    
V 18  24052.649303 -12652.431052   6709.990653     -0.085485                    
P 19  15011.656535    346.917448 -22160.018295    127.732344                    
V 19  -3719.624970  27214.351106  -2300.631417      0.049879                    
P 20  18903.574376  -5823.741088  17611.426500    516.411979                    
V 20  19855.661358  10816.166690 -17978.894680     -0.001648                    
P 21 -14233.165405  18484.486247 -11392.714381    159.054849                    
V 21 -14943.498112   5826.936541  27226.219618      0.005113                    
P 22 -15217.567756   3468.848486 -21062.905605    223.694735                    
V 22   2628.316436 -27604.461775  -6505.131734      0.057923                    
P 23 -19777.493787 -16671.347976   6239.685828     -4.658496                    
V 23   8045.689504   1930.447096  30515.663785     -0.032987                    
P 24   7900.935271 -19357.411558 -16435.880307    270.152111                    
V 24  18728.387669  -8863.913083  20211.759254     -0.030224                    
P 25 -14274.208906 -19071.795926 -12320.146306    294.875235                    
V 25  13960.097062   6141.180782 -26019.075950      0.052354                    
P 26 -23073.853480  -1749.337626  13224.086373    188.775656                    
V 26 -13473.852358 -10468.057819 -24427.398878      0.030767                    
P 27 -12289.274193  15626.012016  17210.723623    145.283657                    
V 27   -956.480590 -22423.462814  19835.908916      0.135374                    
P 28  22424.876047   7249.971176 -11501.717338    385.954794                    
V 28  10766.068698  11394.772659  27189.900336     -0.082864                    
P 29  -4455.207082 -23877.353372  10633.170975   -488.367249                    
V 29   3442.791228 -13258.668405 -28258.721740     -0.045845                    
P 30  19471.283099   4703.791427  17630.785730   -517.307234                    
V 30 -18993.529666  11710.024499  17678.137654     -0.021294                    
P 31 -24684.698536   4968.418806  -9286.813447   -167.798212                    
V 31   9240.694923  -7195.652935 -28344.131951     -0.017194                    
P 32 -14949.287975  -4114.495720 -21445.463519    -80.004977                    
V 32   1147.916689 -27519.624692   4265.598621     -0.072177                    
EOF
